[{"OBJECT_NAME":"ICEYE-X40","OBJECT_ID":"2024-149CK","EPOCH":"2026-03-09T18:13:16.348800","MEAN_MOTION":14.97556326,"ECCENTRICITY":0.00059832,"INCLINATION":97.6865,"RA_OF_ASC_NODE":146.8579,"ARG_OF_PERICENTER":65.2061,"MEAN_ANOMALY":294.9783,"EPHEMERIS_TYPE":0,"CLASSIFICATION_TYPE":"U","NORAD_CAT_ID":60549,"ELEMENT_SET_NO":999,"REV_AT_EPOCH":8519,"BSTAR":0.00028351559,"MEAN_MOTION_DOT":3.253e-5,"MEAN_MOTION_DDOT":0},{"OBJECT_NAME":"STARLINK-35841","OBJECT_ID":"2025-298M","EPOCH":"2026-03-09T22:54:39.942144","MEAN_MOTION":14.99142936,"ECCENTRICITY":0.00019097,"INCLINATION":70.0024,"RA_OF_ASC_NODE":13.923,"ARG_OF_PERICENTER":284.3546,"MEAN_ANOMALY":75.7401,"EPHEMERIS_TYPE":0,"CLASSIFICATION_TYPE":"U","NORAD_CAT_ID":67086,"ELEMENT_SET_NO":999,"REV_AT_EPOCH":1325,"BSTAR":0.00075918804,"MEAN_MOTION_DOT":9.169e-5,"MEAN_MOTION_DDOT":0}]
